OBJECT_NAME,OBJECT_ID,EPOCH,MEAN_MOTION,ECCENTRICITY,INCLINATION,RA_OF_ASC_NODE,ARG_OF_PERICENTER,MEAN_ANOMALY,EPHEMERIS_TYPE,CLASSIFICATION_TYPE,NORAD_CAT_ID,ELEMENT_SET_NO,REV_AT_EPOCH,BSTAR,MEAN_MOTION_DOT,MEAN_MOTION_DDOT
ASTRA 1N,2011-041A,2026-06-16T23:22:14.593728,1.00271351,.0006047,0.0969,46.5691,49.0036,179.4178,0,U,37775,999,4452,0,.116E-5,0
BSAT-3C (JCSAT-110R),2011-041B,2026-06-16T22:40:11.412192,1.00270337,.0000104,0.0200,21.6784,157.2774,176.2533,0,U,37776,999,5046,0,-.354E-5,0
PAKSAT-1R,2011-042A,2026-06-16T22:12:39.229056,1.00266040,.0003256,0.6889,84.5968,336.7103,215.0757,0,U,37779,999,5447,0,.15E-5,0
SES-2,2011-049A,2026-06-17T08:17:40.740288,1.00270275,.0002661,0.0637,98.9269,346.0805,218.0075,0,U,37809,999,5396,0,-.2E-5,0
ARABSAT-5C,2011-049B,2026-06-16T16:31:50.821824,1.00271517,.000343,0.0518,16.4473,86.8227,69.6327,0,U,37810,999,5403,0,.121E-5,0
EUTELSAT 7 WEST A,2011-051A,2026-06-16T18:06:48.703104,1.00271320,.0004052,0.0642,14.0120,82.8414,72.5450,0,U,37816,999,5387,0,-.63E-6,0
QUETZSAT 1,2011-054A,2026-06-17T03:46:02.812800,1.00270246,.0002539,0.0250,44.9887,44.0065,155.9311,0,U,37826,999,4987,0,-.245E-5,0
INTELSAT 18 (IS-18),2011-056A,2026-06-16T17:17:30.930432,1.00270842,.0001594,0.0222,288.1834,156.3306,259.8456,0,U,37834,999,5380,0,.5E-6,0
EUTELSAT 16A,2011-057A,2026-06-16T22:02:20.577408,1.00274104,.0005944,0.0426,336.7196,111.7158,163.3446,0,U,37836,999,733,0,.101E-5,0
VIASAT-1,2011-059A,2026-06-16T15:53:17.021184,1.00269748,.0002085,0.0181,347.5842,100.0622,300.4911,0,U,37843,999,4731,0,-.25E-6,0
ASIASAT 7,2011-069A,2026-06-16T18:38:53.486880,1.00271916,.0001204,0.0323,79.0282,338.4738,232.7804,0,U,37933,999,4485,0,-.336E-5,0
BEIDOU-2 IGSO-5,2011-073A,2026-06-16T18:34:46.382016,1.00272872,.0113948,47.6786,271.5506,221.6919,142.2288,0,U,37948,999,5313,0,-.173E-5,0
LUCH-5A,2011-074B,2026-06-16T12:38:10.579776,1.00270124,.000221,8.7528,73.8170,23.4514,164.0170,0,U,37951,999,5304,0,-.58E-6,0
NIGCOMSAT 1R,2011-077A,2026-06-16T18:20:59.996256,1.00269390,.0002681,0.0440,118.7888,230.1591,233.8191,0,U,38014,999,5295,0,.142E-5,0
WGS F4 (USA 233),2012-003A,2026-06-16T18:34:01.454016,1.00266692,.0000771,0.0218,21.6716,260.7186,349.5656,0,U,38070,999,4414,0,0,0
SES-4,2012-007A,2026-06-16T17:42:51.433920,1.00270030,.0002674,0.0249,30.1851,67.0904,51.4390,0,U,38087,999,5222,0,-.171E-5,0
BEIDOU-2 G5,2012-008A,2026-06-16T22:29:17.664864,1.00271748,.0009117,3.5729,69.6947,272.6810,318.7987,0,U,38091,999,5236,0,.52E-6,0
MUOS-1,2012-009A,2026-06-17T05:41:13.572096,1.00270081,.0058581,5.4760,47.1538,1.8452,201.7944,0,U,38093,999,5244,0,-.134E-5,0
INTELSAT 22 (IS-22),2012-011A,2026-06-16T22:44:47.917248,1.00272290,.000153,0.0129,83.4222,14.6334,220.4496,0,U,38098,999,718,0,-.62E-6,0
APSTAR-7,2012-013A,2026-06-16T18:30:36.573696,1.00271566,.0002558,0.0206,22.5690,72.0205,164.5923,0,U,38107,999,5180,0,-.104E-5,0
YAHSAT 1B,2012-016A,2026-06-16T23:30:21.316032,1.00269928,.0002504,0.0933,89.7294,21.9370,193.7450,0,U,38245,999,4560,0,.123E-5,0
AEHF-2 (USA 235),2012-019A,2026-06-16T09:30:53.761248,1.00269828,.00023227,6.6489,57.4939,19.5331,313.8010,0,U,38254,999,697,0,-.141E-5,0
JCSAT-13,2012-023A,2026-06-16T18:44:15.472032,1.00271134,.000298,0.0126,42.7876,67.9671,199.3520,0,U,38331,999,5153,0,-.359E-5,0
VINASAT-2,2012-023B,2026-06-16T18:46:30.256896,1.00268472,.0002014,0.0151,336.6470,116.4194,225.4580,0,U,38332,999,4665,0,-.332E-5,0
NIMIQ 6,2012-026A,2026-06-17T03:47:41.994816,1.00270161,.0002472,0.0136,313.1293,132.1270,145.9738,0,U,38342,999,5041,0,-.177E-5,0
ZHONGXING-2A,2012-028A,2026-06-16T23:44:53.621664,1.00270145,.0003759,1.4535,83.8712,46.4476,229.3961,0,U,38352,999,5129,0,-.296E-5,0
INTELSAT 19 (IS-19),2012-030A,2026-06-16T17:13:31.312128,1.00271029,.0002837,0.0137,8.8312,85.2670,235.2581,0,U,38356,999,5044,0,-.59E-6,0
ECHOSTAR 17,2012-035A,2026-06-16T15:55:31.806048,1.00268765,.0002124,0.0236,16.0503,67.1678,313.5002,0,U,38551,999,5105,0,0,0
METEOSAT-10 (MSG-3),2012-035B,2026-06-16T19:51:39.275424,1.00276800,.0001483,4.6712,61.0232,328.6551,173.6808,0,U,38552,999,5085,0,-.9E-7,0
SES-5,2012-036A,2026-06-16T18:10:08.235264,1.00264687,.0001858,0.0491,313.9360,141.1437,87.4557,0,U,38652,999,4445,0,.3E-6,0
INTELSAT 20 (IS-20),2012-043A,2026-06-16T22:40:02.213184,1.00271141,.000193,0.0215,79.6898,97.6903,136.3347,0,U,38740,999,5074,0,-.27E-6,0
HYLAS 2,2012-043B,2026-06-17T06:50:46.267008,1.00269424,.0002478,2.4282,81.0670,27.7694,186.8190,0,U,38741,999,5077,0,-.263E-5,0
